{"type": "FeatureCollection", "features": [ {"type": "Feature", "properties": {"norad_id": 52912, "name": "GAOFEN-12 03", "group": "resource", "lat": 82.09212312144388, "lon": 164.6915486128559, "alt_km": 622.116332077806, "timestamp": "2025-12-26T20:30:45.591548+00:00", "meta": {"OBJECT_NAME": "GAOFEN-12 03", "OBJECT_ID": "2022-069A", "EPOCH": "2025-12-26T15:14:33.999072", "MEAN_MOTION": 14.79640176, "ECCENTRICITY": 0.00017168, "INCLINATION": 97.8475, "RA_OF_ASC_NODE": 247.6629, "ARG_OF_PERICENTER": 46.5754, "MEAN_ANOMALY": 313.56, "EPHEMERIS_TYPE": 0, "CLASSIFICATION_TYPE": "U", "NORAD_CAT_ID": 52912, "ELEMENT_SET_NO": 999, "REV_AT_EPOCH": 18909, "BSTAR": 0.00011405054, "MEAN_MOTION_DOT": 8.05e-06, "MEAN_MOTION_DDOT": 0}, "tle": {"line1": "1 52912U 22069A   25360.63511573  .00000805  00000+0  11405-3 0  9991", "line2": "2 52912  97.8475 247.6629 0001716  46.5754 313.5600 14.79640176189093"}}, "geometry": {"type": "Point", "coordinates": [164.6915486128559, 82.09212312144388]}}, {"type": "Feature", "properties": {"norad_id": 54754, "name": "SWOT", "group": "resource", "lat": -1.3894096484029732, "lon": -92.36856698901933, "alt_km": 896.0890548927637, "timestamp": "2025-12-26T20:30:45.591557+00:00", "meta": {"OBJECT_NAME": "SWOT", "OBJECT_ID": "2022-173A", "EPOCH": "2025-12-26T13:39:35.369568", "MEAN_MOTION": 14.00168996, "ECCENTRICITY": 4.283e-05, "INCLINATION": 77.6107, "RA_OF_ASC_NODE": 268.3222, "ARG_OF_PERICENTER": 80.6334, "MEAN_ANOMALY": 279.4866, "EPHEMERIS_TYPE": 0, "CLASSIFICATION_TYPE": "U", "NORAD_CAT_ID": 54754, "ELEMENT_SET_NO": 999, "REV_AT_EPOCH": 15499, "BSTAR": 9.3697486e-05, "MEAN_MOTION_DOT": 1.36e-06, "MEAN_MOTION_DDOT": 0}, "tle": {"line1": "1 54754U 22173A   25360.56915937  .00000136  00000+0  93697-4 0  9998", "line2": "2 54754  77.6107 268.3222 0000428  80.6334 279.4866 14.00168996154992"}}, "geometry": {"type": "Point", "coordinates": [-92.36856698901933, -1.3894096484029732]}}, {"type": "Feature", "properties": {"norad_id": 57654, "name": "GAOFEN-12 04", "group": "resource", "lat": -79.79934380514378, "lon": 45.77910498144607, "alt_km": 638.326790684473, "timestamp": "2025-12-26T20:30:45.591567+00:00", "meta": {"OBJECT_NAME": "GAOFEN-12 04", "OBJECT_ID": "2023-123A", "EPOCH": "2025-12-26T14:27:23.635296", "MEAN_MOTION": 14.79739636, "ECCENTRICITY": 0.00011936, "INCLINATION": 97.9129, "RA_OF_ASC_NODE": 276.15, "ARG_OF_PERICENTER": 80.5577, "MEAN_ANOMALY": 279.577, "EPHEMERIS_TYPE": 0, "CLASSIFICATION_TYPE": "U", "NORAD_CAT_ID": 57654, "ELEMENT_SET_NO": 999, "REV_AT_EPOCH": 12710, "BSTAR": 0.00020102657, "MEAN_MOTION_DOT": 1.46e-05, "MEAN_MOTION_DDOT": 0}, "tle": {"line1": "1 57654U 23123A   25360.60235689  .00001460  00000+0  20103-3 0  9992", "line2": "2 57654  97.9129 276.1500 0001193  80.5577 279.5770 14.79739636127106"}}, "geometry": {"type": "Point", "coordinates": [45.77910498144607, -79.79934380514378]}}, {"type": "Feature", "properties": {"norad_id": 59065, "name": "PARS 1", "group": "resource", "lat": 4.195381943349472, "lon": 152.64214165456636, "alt_km": 451.3187116898753, "timestamp": "2025-12-26T20:30:45.591576+00:00", "meta": {"OBJECT_NAME": "PARS 1", "OBJECT_ID": "2024-039Q", "EPOCH": "2025-12-26T15:04:44.880672", "MEAN_MOTION": 15.41293571, "ECCENTRICITY": 0.00113584, "INCLINATION": 97.4655, "RA_OF_ASC_NODE": 331.8596, "ARG_OF_PERICENTER": 29.5064, "MEAN_ANOMALY": 330.6821, "EPHEMERIS_TYPE": 0, "CLASSIFICATION_TYPE": "U", "NORAD_CAT_ID": 59065, "ELEMENT_SET_NO": 999, "REV_AT_EPOCH": 10202, "BSTAR": 0.00031470892, "MEAN_MOTION_DOT": 0.00013051, "MEAN_MOTION_DDOT": 0}, "tle": {"line1": "1 59065U 24039Q   25360.62829723  .00013051  00000+0  31471-3 0  9996", "line2": "2 59065  97.4655 331.8596 0011358  29.5064 330.6821 15.41293571102028"}}, "geometry": {"type": "Point", "coordinates": [152.64214165456636, 4.195381943349472]}}, {"type": "Feature", "properties": {"norad_id": 59371, "name": "RESURS-P 4", "group": "resource", "lat": -41.051056940017105, "lon": 120.5268596323214, "alt_km": 476.2287606726759, "timestamp": "2025-12-26T20:30:45.591586+00:00", "meta": {"OBJECT_NAME": "RESURS-P 4", "OBJECT_ID": "2024-061A", "EPOCH": "2025-12-26T14:50:50.572896", "MEAN_MOTION": 15.32207935, "ECCENTRICITY": 8.011e-05, "INCLINATION": 97.2563, "RA_OF_ASC_NODE": 306.6663, "ARG_OF_PERICENTER": 90.1678, "MEAN_ANOMALY": 269.9656, "EPHEMERIS_TYPE": 0, "CLASSIFICATION_TYPE": "U", "NORAD_CAT_ID": 59371, "ELEMENT_SET_NO": 999, "REV_AT_EPOCH": 9733, "BSTAR": 0.00014093005, "MEAN_MOTION_DOT": 4.306e-05, "MEAN_MOTION_DDOT": 0}, "tle": {"line1": "1 59371U 24061A   25360.61864089  .00004306  00000+0  14093-3 0  9998", "line2": "2 59371  97.2563 306.6663 0000801  90.1678 269.9656 15.32207935 97331"}}, "geometry": {"type": "Point", "coordinates": [120.5268596323214, -41.051056940017105]}}, {"type": "Feature", "properties": {"norad_id": 59625, "name": "LEGION 1", "group": "resource", "lat": 15.203622557306534, "lon": 73.31540576118573, "alt_km": 518.3744148560372, "timestamp": "2025-12-26T20:30:45.591595+00:00", "meta": {"OBJECT_NAME": "LEGION 1", "OBJECT_ID": "2024-081A", "EPOCH": "2025-12-26T14:06:40.693536", "MEAN_MOTION": 15.16615153, "ECCENTRICITY": 0.00036522, "INCLINATION": 97.5192, "RA_OF_ASC_NODE": 75.1081, "ARG_OF_PERICENTER": 252.5393, "MEAN_ANOMALY": 107.5441, "EPHEMERIS_TYPE": 0, "CLASSIFICATION_TYPE": "U", "NORAD_CAT_ID": 59625, "ELEMENT_SET_NO": 999, "REV_AT_EPOCH": 9137, "BSTAR": 0.00025780517, "MEAN_MOTION_DOT": 4.972e-05, "MEAN_MOTION_DDOT": 0}, "tle": {"line1": "1 59625U 24081A   25360.58797099  .00004972  00000+0  25781-3 0  9999", "line2": "2 59625  97.5192  75.1081 0003652 252.5393 107.5441 15.16615153 91375"}}, "geometry": {"type": "Point", "coordinates": [73.31540576118573, 15.203622557306534]}}, {"type": "Feature", "properties": {"norad_id": 59626, "name": "LEGION 2", "group": "resource", "lat": -15.77713231733568, "lon": -106.67823330497657, "alt_km": 517.7060857056213, "timestamp": "2025-12-26T20:30:45.591604+00:00", "meta": {"OBJECT_NAME": "LEGION 2", "OBJECT_ID": "2024-081B", "EPOCH": "2025-12-26T13:19:03.861120", "MEAN_MOTION": 15.16629213, "ECCENTRICITY": 0.00058346, "INCLINATION": 97.5196, "RA_OF_ASC_NODE": 75.1634, "ARG_OF_PERICENTER": 234.1286, "MEAN_ANOMALY": 125.9405, "EPHEMERIS_TYPE": 0, "CLASSIFICATION_TYPE": "U", "NORAD_CAT_ID": 59626, "ELEMENT_SET_NO": 999, "REV_AT_EPOCH": 9137, "BSTAR": 0.00029720652, "MEAN_MOTION_DOT": 5.746e-05, "MEAN_MOTION_DDOT": 0}, "tle": {"line1": "1 59626U 24081B   25360.55490580  .00005746  00000+0  29721-3 0  9990", "line2": "2 59626  97.5196  75.1634 0005834 234.1286 125.9405 15.16629213 91371"}}, "geometry": {"type": "Point", "coordinates": [-106.67823330497657, -15.77713231733568]}}, {"type": "Feature", "properties": {"norad_id": 60182, "name": "ALOS-4 (DAICHI-4)", "group": "resource", "lat": 47.78321663496711, "lon": -75.67174809570918, "alt_km": 625.8866703323174, "timestamp": "2025-12-26T20:30:45.591614+00:00", "meta": {"OBJECT_NAME": "ALOS-4 (DAICHI-4)", "OBJECT_ID": "2024-123A", "EPOCH": "2025-12-26T13:25:39.163584", "MEAN_MOTION": 14.79476567, "ECCENTRICITY": 0.00014142, "INCLINATION": 97.9216, "RA_OF_ASC_NODE": 95.2093, "ARG_OF_PERICENTER": 100.9646, "MEAN_ANOMALY": 259.1724, "EPHEMERIS_TYPE": 0, "CLASSIFICATION_TYPE": "U", "NORAD_CAT_ID": 60182, "ELEMENT_SET_NO": 999, "REV_AT_EPOCH": 8035, "BSTAR": 0.00030193189, "MEAN_MOTION_DOT": 2.204e-05, "MEAN_MOTION_DDOT": 0}, "tle": {"line1": "1 60182U 24123A   25360.55948106  .00002204  00000+0  30193-3 0  9999", "line2": "2 60182  97.9216  95.2093 0001414 100.9646 259.1724 14.79476567 80359"}}, "geometry": {"type": "Point", "coordinates": [-75.67174809570918, 47.78321663496711]}}, {"type": "Feature", "properties": {"norad_id": 60452, "name": "LEGION 3", "group": "resource", "lat": -16.445690139408818, "lon": -142.72482968999745, "alt_km": 515.0936371651933, "timestamp": "2025-12-26T20:30:45.591623+00:00", "meta": {"OBJECT_NAME": "LEGION 3", "OBJECT_ID": "2024-146A", "EPOCH": "2025-12-26T09:32:43.213632", "MEAN_MOTION": 15.15898976, "ECCENTRICITY": 0.00157688, "INCLINATION": 45.0003, "RA_OF_ASC_NODE": 236.9073, "ARG_OF_PERICENTER": 271.187, "MEAN_ANOMALY": 88.7202, "EPHEMERIS_TYPE": 0, "CLASSIFICATION_TYPE": "U", "NORAD_CAT_ID": 60452, "ELEMENT_SET_NO": 999, "REV_AT_EPOCH": 7580, "BSTAR": 0.00028665806, "MEAN_MOTION_DOT": 5.337e-05, "MEAN_MOTION_DDOT": 0}, "tle": {"line1": "1 60452U 24146A   25360.39772238  .00005337  00000+0  28666-3 0  9999", "line2": "2 60452  45.0003 236.9073 0015768 271.1870  88.7202 15.15898976 75800"}}, "geometry": {"type": "Point", "coordinates": [-142.72482968999745, -16.445690139408818]}}, {"type": "Feature", "properties": {"norad_id": 60453, "name": "LEGION 4", "group": "resource", "lat": -16.65519310336869, "lon": -51.14638336992063, "alt_km": 516.6856436908656, "timestamp": "2025-12-26T20:30:45.591633+00:00", "meta": {"OBJECT_NAME": "LEGION 4", "OBJECT_ID": "2024-146B", "EPOCH": "2025-12-26T09:32:49.532064", "MEAN_MOTION": 15.15973497, "ECCENTRICITY": 0.00079182, "INCLINATION": 45.0397, "RA_OF_ASC_NODE": 328.6982, "ARG_OF_PERICENTER": 27.6743, "MEAN_ANOMALY": 332.4556, "EPHEMERIS_TYPE": 0, "CLASSIFICATION_TYPE": "U", "NORAD_CAT_ID": 60453, "ELEMENT_SET_NO": 999, "REV_AT_EPOCH": 7465, "BSTAR": 0.0003360336, "MEAN_MOTION_DOT": 6.303e-05, "MEAN_MOTION_DDOT": 0}, "tle": {"line1": "1 60453U 24146B   25360.39779551  .00006303  00000+0  33603-3 0  9996", "line2": "2 60453  45.0397 328.6982 0007918  27.6743 332.4556 15.15973497 74651"}}, "geometry": {"type": "Point", "coordinates": [-51.14638336992063, -16.65519310336869]}}]}